HXMT (HUIYAN)           
1 42758U 17034A   26085.03472698  .00004892  00000+0  24702-3 0  9991
2 42758  43.0145 285.7875 0032269 335.7143  24.2183 15.17667489485028
SAOCOM 1A               
1 43641U 18076A   26085.30060162  .00000366  00000+0  52579-4 0  9995
2 43641  97.8907 273.2384 0001522  85.0010 275.1377 14.82158246403823
H-2A R/B                
1 43682U 18084L   26085.08867942  .00019124  00000+0  44571-3 0  9999
2 43682  98.8711 305.9886 0023963 328.3028  31.6770 15.42029342408308
SAOCOM 1B               
1 46265U 20059A   26085.26432300  .00000221  00000+0  34273-4 0  9997
2 46265  97.8906 272.3004 0001476  88.6734 271.4648 14.82151877301208
CSS (TIANHE)            
1 48274U 21035A   26085.28480578  .00020686  00000+0  23788-3 0  9991
2 48274  41.4667 107.1208 0004385  26.4822 333.6240 15.61506584280202
COSMOS 2550             
1 48865U 21056A   26085.34088207 -.00000187  00000+0  15779-6 0  9999
2 48865  67.1428 350.5143 0008327 269.6558  90.3642 15.33824566266015
CZ-2C R/B               
1 52794U 22058K   26084.77221419  .00037524  00000+0  52496-3 0  9996
2 52794  50.1868 235.4871 0041526 269.6026  90.0186 15.55377493212633
CZ-2C R/B               
1 54039U 22132E   26085.27777590  .00046518  00000+0  50050-3 0  9992
2 54039  97.2964  89.1177 0018259  37.6238 322.6294 15.63391848192960
GSLV R/B                
1 54149U 22138AN  26085.23353481  .00002455  00000+0  21043-3 0  9997
2 54149  87.3864 160.8245 0024096  92.1088 268.2903 14.96880005186406
XRISM                   
1 57800U 23137A   26084.95078135  .00005309  00000+0  29863-3 0  9991
2 57800  31.0011 178.4698 0007945 202.9439 157.0846 15.11680530140258
ACS3                    
1 59588U 24077B   26085.27035321  .00013273  00000+0  10492-1 0  9991
2 59588  97.1979  22.6559 0071464  38.2696 322.3510 13.90336160 96502
SZ-21 MODULE            
1 66515U 25246C   26084.41173396  .00034230  00000+0  28093-3 0  9992
2 66515  41.4741 106.4894 0001002 208.3621 151.7166 15.69739008 20549
