[{"OBJECT_NAME":"HXMT (HUIYAN)","OBJECT_ID":"2017-034A","EPOCH":"2026-03-26T00:50:00.411072","MEAN_MOTION":15.17667489,"ECCENTRICITY":0.00322696,"INCLINATION":43.0145,"RA_OF_ASC_NODE":285.7875,"ARG_OF_PERICENTER":335.7143,"MEAN_ANOMALY":24.2183,"EPHEMERIS_TYPE":0,"CLASSIFICATION_TYPE":"U","NORAD_CAT_ID":42758,"ELEMENT_SET_NO":999,"REV_AT_EPOCH":48502,"BSTAR":0.00024702189,"MEAN_MOTION_DOT":4.892e-5,"MEAN_MOTION_DDOT":0},{"OBJECT_NAME":"SAOCOM 1A","OBJECT_ID":"2018-076A","EPOCH":"2026-03-26T07:12:51.979968","MEAN_MOTION":14.82158246,"ECCENTRICITY":0.00015221,"INCLINATION":97.8907,"RA_OF_ASC_NODE":273.2384,"ARG_OF_PERICENTER":85.001,"MEAN_ANOMALY":275.1377,"EPHEMERIS_TYPE":0,"CLASSIFICATION_TYPE":"U","NORAD_CAT_ID":43641,"ELEMENT_SET_NO":999,"REV_AT_EPOCH":40382,"BSTAR":5.2579351e-5,"MEAN_MOTION_DOT":3.66e-6,"MEAN_MOTION_DDOT":0},{"OBJECT_NAME":"H-2A R/B","OBJECT_ID":"2018-084L","EPOCH":"2026-03-26T02:07:41.901888","MEAN_MOTION":15.42029342,"ECCENTRICITY":0.0023963,"INCLINATION":98.8711,"RA_OF_ASC_NODE":305.9886,"ARG_OF_PERICENTER":328.3028,"MEAN_ANOMALY":31.677,"EPHEMERIS_TYPE":0,"CLASSIFICATION_TYPE":"U","NORAD_CAT_ID":43682,"ELEMENT_SET_NO":999,"REV_AT_EPOCH":40830,"BSTAR":0.00044571062,"MEAN_MOTION_DOT":0.00019124,"MEAN_MOTION_DDOT":0},{"OBJECT_NAME":"SAOCOM 1B","OBJECT_ID":"2020-059A","EPOCH":"2026-03-26T06:20:37.507200","MEAN_MOTION":14.82151877,"ECCENTRICITY":0.00014769,"INCLINATION":97.8906,"RA_OF_ASC_NODE":272.3004,"ARG_OF_PERICENTER":88.6734,"MEAN_ANOMALY":271.4648,"EPHEMERIS_TYPE":0,"CLASSIFICATION_TYPE":"U","NORAD_CAT_ID":46265,"ELEMENT_SET_NO":999,"REV_AT_EPOCH":30120,"BSTAR":3.4272914e-5,"MEAN_MOTION_DOT":2.21e-6,"MEAN_MOTION_DDOT":0},{"OBJECT_NAME":"CSS (TIANHE)","OBJECT_ID":"2021-035A","EPOCH":"2026-03-26T06:50:07.219392","MEAN_MOTION":15.61506584,"ECCENTRICITY":0.00043858,"INCLINATION":41.4667,"RA_OF_ASC_NODE":107.1208,"ARG_OF_PERICENTER":26.4822,"MEAN_ANOMALY":333.624,"EPHEMERIS_TYPE":0,"CLASSIFICATION_TYPE":"U","NORAD_CAT_ID":48274,"ELEMENT_SET_NO":999,"REV_AT_EPOCH":28020,"BSTAR":0.00023787664,"MEAN_MOTION_DOT":0.00020686,"MEAN_MOTION_DDOT":0},{"OBJECT_NAME":"COSMOS 2550","OBJECT_ID":"2021-056A","EPOCH":"2026-03-26T08:10:52.210848","MEAN_MOTION":15.33824566,"ECCENTRICITY":0.0008327,"INCLINATION":67.1428,"RA_OF_ASC_NODE":350.5143,"ARG_OF_PERICENTER":269.6558,"MEAN_ANOMALY":90.3642,"EPHEMERIS_TYPE":0,"CLASSIFICATION_TYPE":"U","NORAD_CAT_ID":48865,"ELEMENT_SET_NO":999,"REV_AT_EPOCH":26601,"BSTAR":1.5779e-7,"MEAN_MOTION_DOT":-1.87e-6,"MEAN_MOTION_DDOT":0},{"OBJECT_NAME":"CZ-2C R/B","OBJECT_ID":"2022-058K","EPOCH":"2026-03-25T18:31:59.306016","MEAN_MOTION":15.55377493,"ECCENTRICITY":0.00415265,"INCLINATION":50.1868,"RA_OF_ASC_NODE":235.4871,"ARG_OF_PERICENTER":269.6026,"MEAN_ANOMALY":90.0186,"EPHEMERIS_TYPE":0,"CLASSIFICATION_TYPE":"U","NORAD_CAT_ID":52794,"ELEMENT_SET_NO":999,"REV_AT_EPOCH":21263,"BSTAR":0.00052496288,"MEAN_MOTION_DOT":0.00037524,"MEAN_MOTION_DDOT":0},{"OBJECT_NAME":"CZ-2C R/B","OBJECT_ID":"2022-132E","EPOCH":"2026-03-26T06:39:59.837760","MEAN_MOTION":15.63391848,"ECCENTRICITY":0.00182599,"INCLINATION":97.2964,"RA_OF_ASC_NODE":89.1177,"ARG_OF_PERICENTER":37.6238,"MEAN_ANOMALY":322.6294,"EPHEMERIS_TYPE":0,"CLASSIFICATION_TYPE":"U","NORAD_CAT_ID":54039,"ELEMENT_SET_NO":999,"REV_AT_EPOCH":19296,"BSTAR":0.0005004981,"MEAN_MOTION_DOT":0.00046518,"MEAN_MOTION_DDOT":0},{"OBJECT_NAME":"GSLV R/B","OBJECT_ID":"2022-138AN","EPOCH":"2026-03-26T05:36:17.407584","MEAN_MOTION":14.96880005,"ECCENTRICITY":0.00240969,"INCLINATION":87.3864,"RA_OF_ASC_NODE":160.8245,"ARG_OF_PERICENTER":92.1088,"MEAN_ANOMALY":268.2903,"EPHEMERIS_TYPE":0,"CLASSIFICATION_TYPE":"U","NORAD_CAT_ID":54149,"ELEMENT_SET_NO":999,"REV_AT_EPOCH":18640,"BSTAR":0.00021042658,"MEAN_MOTION_DOT":2.455e-5,"MEAN_MOTION_DDOT":0},{"OBJECT_NAME":"XRISM","OBJECT_ID":"2023-137A","EPOCH":"2026-03-25T22:49:07.508640","MEAN_MOTION":15.1168053,"ECCENTRICITY":0.0007945,"INCLINATION":31.0011,"RA_OF_ASC_NODE":178.4698,"ARG_OF_PERICENTER":202.9439,"MEAN_ANOMALY":157.0846,"EPHEMERIS_TYPE":0,"CLASSIFICATION_TYPE":"U","NORAD_CAT_ID":57800,"ELEMENT_SET_NO":999,"REV_AT_EPOCH":14025,"BSTAR":0.00029863,"MEAN_MOTION_DOT":5.309e-5,"MEAN_MOTION_DDOT":0},{"OBJECT_NAME":"ACS3","OBJECT_ID":"2024-077B","EPOCH":"2026-03-26T06:29:18.517344","MEAN_MOTION":13.9033616,"ECCENTRICITY":0.0071464,"INCLINATION":97.1979,"RA_OF_ASC_NODE":22.6559,"ARG_OF_PERICENTER":38.2696,"MEAN_ANOMALY":322.351,"EPHEMERIS_TYPE":0,"CLASSIFICATION_TYPE":"U","NORAD_CAT_ID":59588,"ELEMENT_SET_NO":999,"REV_AT_EPOCH":9650,"BSTAR":0.010491926,"MEAN_MOTION_DOT":0.00013273,"MEAN_MOTION_DDOT":0},{"OBJECT_NAME":"SZ-21 MODULE","OBJECT_ID":"2025-246C","EPOCH":"2026-03-25T09:52:53.814144","MEAN_MOTION":15.69739008,"ECCENTRICITY":0.00010026,"INCLINATION":41.4741,"RA_OF_ASC_NODE":106.4894,"ARG_OF_PERICENTER":208.3621,"MEAN_ANOMALY":151.7166,"EPHEMERIS_TYPE":0,"CLASSIFICATION_TYPE":"U","NORAD_CAT_ID":66515,"ELEMENT_SET_NO":999,"REV_AT_EPOCH":2054,"BSTAR":0.00028093455,"MEAN_MOTION_DOT":0.0003423,"MEAN_MOTION_DDOT":0}]
